{
  "type": "FeatureCollection",
  "features": [
    {
      "type": "Feature",
      "properties": {
        "norad_id": 22490,
        "name": "SCD 1",
        "group": "resource",
        "lat": -22.10713982088731,
        "lon": -136.5413701709385,
        "alt_km": 712.9288807210878,
        "timestamp": "2025-12-02T08:59:32.375898+00:00",
        "meta_object_name": "SCD 1",
        "meta_object_id": "1993-009B",
        "meta_epoch": "2025-12-02T04:55:15.970080",
        "meta_mean_motion": 14.4598626,
        "meta_eccentricity": 0.0041871,
        "meta_inclination": 24.971,
        "meta_ra_of_asc_node": 343.7165,
        "meta_arg_of_pericenter": 212.9726,
        "meta_mean_anomaly": 225.06,
        "meta_ephemeris_type": 0,
        "meta_classification_type": "U",
        "meta_norad_cat_id": 22490,
        "meta_element_set_no": 999,
        "meta_rev_at_epoch": 73257,
        "meta_bstar": 0.00010663,
        "meta_mean_motion_dot": 5.76e-06,
        "meta_mean_motion_ddot": 0,
        "tle_line1": "1 22490U 93009B   25336.20504595  .00000576  00000+0  10663-3 0  9993",
        "tle_line2": "2 22490  24.9710 343.7165 0041871 212.9726 225.0600 14.45986260732575"
      },
      "geometry": {
        "type": "Point",
        "coordinates": [
          -136.5413701709385,
          -22.10713982088731
        ]
      }
    },
    {
      "type": "Feature",
      "properties": {
        "norad_id": 25397,
        "name": "TECHSAT 1B (GO-32)",
        "group": "resource",
        "lat": -30.227088423696912,
        "lon": -35.35873671435194,
        "alt_km": 816.9128957221819,
        "timestamp": "2025-12-02T08:59:32.375926+00:00",
        "meta_object_name": "TECHSAT 1B (GO-32)",
        "meta_object_id": "1998-043D",
        "meta_epoch": "2025-12-01T23:01:13.773216",
        "meta_mean_motion": 14.24372045,
        "meta_eccentricity": 0.0002262,
        "meta_inclination": 98.9914,
        "meta_ra_of_asc_node": 318.9231,
        "meta_arg_of_pericenter": 75.0974,
        "meta_mean_anomaly": 285.0454,
        "meta_ephemeris_type": 0,
        "meta_classification_type": "U",
        "meta_norad_cat_id": 25397,
        "meta_element_set_no": 999,
        "meta_rev_at_epoch": 42325,
        "meta_bstar": 7.5055e-05,
        "meta_mean_motion_dot": 1.27e-06,
        "meta_mean_motion_ddot": 0,
        "tle_line1": "1 25397U 98043D   25335.95918719  .00000127  00000+0  75055-4 0  9992",
        "tle_line2": "2 25397  98.9914 318.9231 0002262  75.0974 285.0454 14.24372045423255"
      },
      "geometry": {
        "type": "Point",
        "coordinates": [
          -35.35873671435194,
          -30.227088423696912
        ]
      }
    },
    {
      "type": "Feature",
      "properties": {
        "norad_id": 25504,
        "name": "SCD 2",
        "group": "resource",
        "lat": -22.16754075041647,
        "lon": 144.8187466237843,
        "alt_km": 741.8572701766343,
        "timestamp": "2025-12-02T08:59:32.375942+00:00",
        "meta_object_name": "SCD 2",
        "meta_object_id": "1998-060A",
        "meta_epoch": "2025-12-01T23:26:54.737088",
        "meta_mean_motion": 14.45413511,
        "meta_eccentricity": 0.0016745,
        "meta_inclination": 24.9938,
        "meta_ra_of_asc_node": 208.2619,
        "meta_arg_of_pericenter": 198.6067,
        "meta_mean_anomaly": 184.5013,
        "meta_ephemeris_type": 0,
        "meta_classification_type": "U",
        "meta_norad_cat_id": 25504,
        "meta_element_set_no": 999,
        "meta_rev_at_epoch": 43176,
        "meta_bstar": 8.5865e-05,
        "meta_mean_motion_dot": 4.9e-06,
        "meta_mean_motion_ddot": 0,
        "tle_line1": "1 25504U 98060A   25335.97702242  .00000490  00000+0  85865-4 0  9998",
        "tle_line2": "2 25504  24.9938 208.2619 0016745 198.6067 184.5013 14.45413511431763"
      },
      "geometry": {
        "type": "Point",
        "coordinates": [
          144.8187466237843,
          -22.16754075041647
        ]
      }
    },
    {
      "type": "Feature",
      "properties": {
        "norad_id": 25757,
        "name": "DLR-TUBSAT",
        "group": "resource",
        "lat": -44.88220652216579,
        "lon": 131.84363525386107,
        "alt_km": 715.2136624677978,
        "timestamp": "2025-12-02T08:59:32.375956+00:00",
        "meta_object_name": "DLR-TUBSAT",
        "meta_object_id": "1999-029B",
        "meta_epoch": "2025-12-02T04:38:59.866944",
        "meta_mean_motion": 14.52350918,
        "meta_eccentricity": 0.0013336,
        "meta_inclination": 98.6554,
        "meta_ra_of_asc_node": 320.3826,
        "meta_arg_of_pericenter": 226.12,
        "meta_mean_anomaly": 133.8894,
        "meta_ephemeris_type": 0,
        "meta_classification_type": "U",
        "meta_norad_cat_id": 25757,
        "meta_element_set_no": 999,
        "meta_rev_at_epoch": 40465,
        "meta_bstar": 5.3218e-05,
        "meta_mean_motion_dot": 1.68e-06,
        "meta_mean_motion_ddot": 0,
        "tle_line1": "1 25757U 99029B   25336.19374846  .00000168  00000+0  53218-4 0  9993",
        "tle_line2": "2 25757  98.6554 320.3826 0013336 226.1200 133.8894 14.52350918404651"
      },
      "geometry": {
        "type": "Point",
        "coordinates": [
          131.84363525386107,
          -44.88220652216579
        ]
      }
    },
    {
      "type": "Feature",
      "properties": {
        "norad_id": 25994,
        "name": "TERRA",
        "group": "resource",
        "lat": -29.878906037844956,
        "lon": 33.0592988916522,
        "alt_km": 698.1441636135605,
        "timestamp": "2025-12-02T08:59:32.375969+00:00",
        "meta_object_name": "TERRA",
        "meta_object_id": "1999-068A",
        "meta_epoch": "2025-12-02T04:30:24.128928",
        "meta_mean_motion": 14.60932373,
        "meta_eccentricity": 0.0003364,
        "meta_inclination": 97.9764,
        "meta_ra_of_asc_node": 28.2586,
        "meta_arg_of_pericenter": 119.1376,
        "meta_mean_anomaly": 308.3983,
        "meta_ephemeris_type": 0,
        "meta_classification_type": "U",
        "meta_norad_cat_id": 25994,
        "meta_element_set_no": 999,
        "meta_rev_at_epoch": 38084,
        "meta_bstar": 0.00013538,
        "meta_mean_motion_dot": 6.18e-06,
        "meta_mean_motion_ddot": 0,
        "tle_line1": "1 25994U 99068A   25336.18777927  .00000618  00000+0  13538-3 0  9995",
        "tle_line2": "2 25994  97.9764  28.2586 0003364 119.1376 308.3983 14.60932373380843"
      },
      "geometry": {
        "type": "Point",
        "coordinates": [
          33.0592988916522,
          -29.878906037844956
        ]
      }
    },
    {
      "type": "Feature",
      "properties": {
        "norad_id": 27004,
        "name": "MAROC-TUBSAT",
        "group": "resource",
        "lat": 78.48756144998322,
        "lon": 22.609089899977498,
        "alt_km": 1005.0919298980889,
        "timestamp": "2025-12-02T08:59:32.375981+00:00",
        "meta_object_name": "MAROC-TUBSAT",
        "meta_object_id": "2001-056D",
        "meta_epoch": "2025-12-01T16:50:04.447104",
        "meta_mean_motion": 13.70252049,
        "meta_eccentricity": 0.0019117,
        "meta_inclination": 99.7911,
        "meta_ra_of_asc_node": 143.9532,
        "meta_arg_of_pericenter": 289.5393,
        "meta_mean_anomaly": 87.1751,
        "meta_ephemeris_type": 0,
        "meta_classification_type": "U",
        "meta_norad_cat_id": 27004,
        "meta_element_set_no": 999,
        "meta_rev_at_epoch": 19914,
        "meta_bstar": 3.4234e-05,
        "meta_mean_motion_dot": -1.7e-07,
        "meta_mean_motion_ddot": 0,
        "tle_line1": "1 27004U 01056D   25335.70144036 -.00000017  00000+0  34234-4 0  9996",
        "tle_line2": "2 27004  99.7911 143.9532 0019117 289.5393  87.1751 13.70252049199142"
      },
      "geometry": {
        "type": "Point",
        "coordinates": [
          22.609089899977498,
          78.48756144998322
        ]
      }
    },
    {
      "type": "Feature",
      "properties": {
        "norad_id": 27424,
        "name": "AQUA",
        "group": "resource",
        "lat": 7.420708374783549,
        "lon": 118.18936985782415,
        "alt_km": 689.2319314226324,
        "timestamp": "2025-12-02T08:59:32.375992+00:00",
        "meta_object_name": "AQUA",
        "meta_object_id": "2002-022A",
        "meta_epoch": "2025-12-02T05:10:53.182848",
        "meta_mean_motion": 14.61766875,
        "meta_eccentricity": 7.21e-05,
        "meta_inclination": 98.4022,
        "meta_ra_of_asc_node": 296.925,
        "meta_arg_of_pericenter": 106.5257,
        "meta_mean_anomaly": 310.7469,
        "meta_ephemeris_type": 0,
        "meta_classification_type": "U",
        "meta_norad_cat_id": 27424,
        "meta_element_set_no": 999,
        "meta_rev_at_epoch": 25449,
        "meta_bstar": 0.00027706,
        "meta_mean_motion_dot": 1.333e-05,
        "meta_mean_motion_ddot": 0,
        "tle_line1": "1 27424U 02022A   25336.21589332  .00001333  00000+0  27706-3 0  9991",
        "tle_line2": "2 27424  98.4022 296.9250 0000721 106.5257 310.7469 14.61766875254490"
      },
      "geometry": {
        "type": "Point",
        "coordinates": [
          118.18936985782415,
          7.420708374783549
        ]
      }
    }
  ]
}